0 IRIDIUM 33 DEB
1 35800U 97051SJ  13282.73693684  .00005582  00000-0  12449-2 0  3491
2 35800 086.2792 092.1456 0055752 295.2538 049.7307 14.55747494233960
0 IRIDIUM 33 DEB
1 35800U 97051SJ  13285.76412375  .00009088  00000-0  20285-2 0  3507
2 35800 086.2794 090.7966 0054127 284.5864 075.1128 14.55808075234407
0 IRIDIUM 33 DEB
1 35800U 97051SJ  13286.72636729  .00006607  00000-0  14740-2 0  3519
2 35800 086.2794 090.3666 0054119 281.3406 078.1212 14.55809842234543
0 IRIDIUM 33 DEB
1 35800U 97051SJ  13287.75738928  .00007426  00000-0  16556-2 0  3525
2 35800 086.2802 089.9095 0054606 279.2002 080.3459 14.55832345234690
0 IRIDIUM 33 DEB
1 35800U 97051SJ  13291.75609094  .00013311  00000-0  29627-2 0  3535
2 35800 086.2805 088.1274 0054844 264.5749 159.3924 14.55921409235271
0 IRIDIUM 33 DEB
1 35800U 97051SJ  13292.15615679  .00009206  00000-0  20521-2 0  3549
2 35800 086.2826 087.9482 0052470 262.4231 097.0712 14.55923647235334
0 IRIDIUM 33 DEB
1 35800U 97051SJ  13294.14928633  .00009518  00000-0  21200-2 0  3559
2 35800 086.2826 087.0581 0052455 255.7000 103.9045 14.55965391235627
